<?xml version="1.0" encoding="UTF-8"?>
<gpx xmlns="http://www.topografix.com/GPX/1/1" xmlns:xsi="http://www.w3.org/2001/XMLSchema-instance" xsi:schemaLocation="http://www.topografix.com/GPX/1/1 http://www.topografix.com/GPX/1/1/gpx.xsd" version="1.1" creator="gpx.py -- https://github.com/tkrajina/gpxpy">
  <metadata>
    <name>Animal GPS Art</name>
  </metadata>
  <trk>
    <name>Animal GPS Art</name>
    <trkseg>
      <trkpt lat="35.7127423" lon="139.6983175">
      </trkpt>
      <trkpt lat="35.7124756" lon="139.6982514">
      </trkpt>
      <trkpt lat="35.7125254" lon="139.6986261">
      </trkpt>
      <trkpt lat="35.71206699999999" lon="139.6987729">
      </trkpt>
      <trkpt lat="35.7121039" lon="139.6989001">
      </trkpt>
      <trkpt lat="35.71100499999999" lon="139.6989679">
      </trkpt>
      <trkpt lat="35.7107721" lon="139.6989565">
      </trkpt>
      <trkpt lat="35.7107013" lon="139.6989595">
      </trkpt>
      <trkpt lat="35.710468799999994" lon="139.6990718">
      </trkpt>
      <trkpt lat="35.71021649999999" lon="139.6985162">
      </trkpt>
      <trkpt lat="35.7101787" lon="139.6982392">
      </trkpt>
      <trkpt lat="35.710568800000004" lon="139.6981898">
      </trkpt>
      <trkpt lat="35.7101787" lon="139.6982392">
      </trkpt>
      <trkpt lat="35.710174999999985" lon="139.6980631">
      </trkpt>
      <trkpt lat="35.7102827" lon="139.6978962">
      </trkpt>
      <trkpt lat="35.7099875" lon="139.6975928">
      </trkpt>
      <trkpt lat="35.709691299999996" lon="139.6971531">
      </trkpt>
      <trkpt lat="35.7097714" lon="139.6970719">
      </trkpt>
      <trkpt lat="35.7098927" lon="139.6969436">
      </trkpt>
      <trkpt lat="35.7101044" lon="139.6972273">
      </trkpt>
      <trkpt lat="35.7098927" lon="139.6969436">
      </trkpt>
      <trkpt lat="35.7097714" lon="139.6970719">
      </trkpt>
      <trkpt lat="35.7095558" lon="139.6967453">
      </trkpt>
      <trkpt lat="35.7089302" lon="139.6962904">
      </trkpt>
      <trkpt lat="35.7089911" lon="139.6960787">
      </trkpt>
      <trkpt lat="35.70951259999999" lon="139.6956883">
      </trkpt>
      <trkpt lat="35.70957709999999" lon="139.6957422">
      </trkpt>
      <trkpt lat="35.70987350000001" lon="139.6959453">
      </trkpt>
      <trkpt lat="35.70995899999999" lon="139.6956792">
      </trkpt>
      <trkpt lat="35.709987700000006" lon="139.6955902">
      </trkpt>
      <trkpt lat="35.7098992" lon="139.695318">
      </trkpt>
      <trkpt lat="35.7099349" lon="139.6952342">
      </trkpt>
      <trkpt lat="35.7101008" lon="139.6948622">
      </trkpt>
      <trkpt lat="35.710000700000016" lon="139.6946625">
      </trkpt>
      <trkpt lat="35.70988539999999" lon="139.6943942">
      </trkpt>
      <trkpt lat="35.70927459999999" lon="139.6950733">
      </trkpt>
      <trkpt lat="35.709187299999996" lon="139.6954012">
      </trkpt>
      <trkpt lat="35.708688599999995" lon="139.69543">
      </trkpt>
      <trkpt lat="35.7079435" lon="139.6955335">
      </trkpt>
      <trkpt lat="35.70791499999999" lon="139.6959919">
      </trkpt>
      <trkpt lat="35.7076515" lon="139.69596510000002">
      </trkpt>
      <trkpt lat="35.70763489999999" lon="139.696248">
      </trkpt>
      <trkpt lat="35.707420299999995" lon="139.6962261">
      </trkpt>
      <trkpt lat="35.707416" lon="139.6962859">
      </trkpt>
      <trkpt lat="35.707402" lon="139.6964827">
      </trkpt>
      <trkpt lat="35.707144" lon="139.6964637">
      </trkpt>
      <trkpt lat="35.7071381" lon="139.6965368">
      </trkpt>
      <trkpt lat="35.707129699999996" lon="139.6966417">
      </trkpt>
      <trkpt lat="35.70711839999999" lon="139.6967833">
      </trkpt>
      <trkpt lat="35.707113499999984" lon="139.6968445">
      </trkpt>
      <trkpt lat="35.7070974" lon="139.6970466">
      </trkpt>
      <trkpt lat="35.7070825" lon="139.69723260000004">
      </trkpt>
      <trkpt lat="35.7070642" lon="139.6974379">
      </trkpt>
      <trkpt lat="35.7070497" lon="139.6976434">
      </trkpt>
      <trkpt lat="35.7070441" lon="139.6977214">
      </trkpt>
      <trkpt lat="35.70703399999999" lon="139.6978404">
      </trkpt>
      <trkpt lat="35.7070239" lon="139.6979593">
      </trkpt>
      <trkpt lat="35.707018299999994" lon="139.6980364">
      </trkpt>
      <trkpt lat="35.70700719999999" lon="139.698175">
      </trkpt>
      <trkpt lat="35.707003" lon="139.6982283">
      </trkpt>
      <trkpt lat="35.7069873" lon="139.6984244">
      </trkpt>
      <trkpt lat="35.7069695" lon="139.6986471">
      </trkpt>
      <trkpt lat="35.70696" lon="139.6987662">
      </trkpt>
      <trkpt lat="35.706951" lon="139.6988779">
      </trkpt>
      <trkpt lat="35.7069441" lon="139.6989651">
      </trkpt>
      <trkpt lat="35.7066505" lon="139.6990078">
      </trkpt>
      <trkpt lat="35.70663889999999" lon="139.6991661">
      </trkpt>
      <trkpt lat="35.706635199999994" lon="139.6992245">
      </trkpt>
      <trkpt lat="35.7066239" lon="139.6993677">
      </trkpt>
      <trkpt lat="35.70661880000001" lon="139.6994356">
      </trkpt>
      <trkpt lat="35.70660900000001" lon="139.6995667">
      </trkpt>
      <trkpt lat="35.70659599999999" lon="139.6997393">
      </trkpt>
      <trkpt lat="35.706575999999984" lon="139.700007">
      </trkpt>
      <trkpt lat="35.7062727" lon="139.6999817">
      </trkpt>
      <trkpt lat="35.705535299999994" lon="139.700112">
      </trkpt>
      <trkpt lat="35.7042195" lon="139.7000323">
      </trkpt>
      <trkpt lat="35.70418020000001" lon="139.700497">
      </trkpt>
      <trkpt lat="35.7040868" lon="139.7013764">
      </trkpt>
      <trkpt lat="35.7036925" lon="139.7012657">
      </trkpt>
      <trkpt lat="35.70327460000001" lon="139.7012654">
      </trkpt>
      <trkpt lat="35.703238099999986" lon="139.7012622">
      </trkpt>
      <trkpt lat="35.7029222" lon="139.7012343">
      </trkpt>
      <trkpt lat="35.70290649999999" lon="139.7012329">
      </trkpt>
      <trkpt lat="35.70261459999999" lon="139.7012134">
      </trkpt>
      <trkpt lat="35.70251979999999" lon="139.7012071">
      </trkpt>
      <trkpt lat="35.70231739999999" lon="139.7011858">
      </trkpt>
      <trkpt lat="35.7014122" lon="139.7010991">
      </trkpt>
      <trkpt lat="35.7013853" lon="139.7015569">
      </trkpt>
      <trkpt lat="35.7014122" lon="139.7010991">
      </trkpt>
      <trkpt lat="35.7009998" lon="139.7010295">
      </trkpt>
      <trkpt lat="35.7007139" lon="139.7009711">
      </trkpt>
      <trkpt lat="35.6996576" lon="139.7007556">
      </trkpt>
      <trkpt lat="35.6996528" lon="139.7009342">
      </trkpt>
      <trkpt lat="35.698124299999996" lon="139.7007187">
      </trkpt>
      <trkpt lat="35.698140699999996" lon="139.70127440000002">
      </trkpt>
      <trkpt lat="35.6981669" lon="139.7020497">
      </trkpt>
      <trkpt lat="35.6981996" lon="139.7026554">
      </trkpt>
      <trkpt lat="35.6994573" lon="139.7029003">
      </trkpt>
      <trkpt lat="35.699387400000006" lon="139.7034026">
      </trkpt>
      <trkpt lat="35.699298" lon="139.7040088">
      </trkpt>
      <trkpt lat="35.698302599999984" lon="139.703828">
      </trkpt>
      <trkpt lat="35.69832619999999" lon="139.7040833">
      </trkpt>
      <trkpt lat="35.6982544" lon="139.7040708">
      </trkpt>
      <trkpt lat="35.6981791" lon="139.7033009">
      </trkpt>
      <trkpt lat="35.69751500000001" lon="139.70317">
      </trkpt>
      <trkpt lat="35.697033899999994" lon="139.7030807">
      </trkpt>
      <trkpt lat="35.696883" lon="139.7037845">
      </trkpt>
      <trkpt lat="35.696561599999995" lon="139.7037099">
      </trkpt>
      <trkpt lat="35.6963226" lon="139.7036545">
      </trkpt>
      <trkpt lat="35.6959607" lon="139.7035705">
      </trkpt>
      <trkpt lat="35.69584450000001" lon="139.7042018">
      </trkpt>
      <trkpt lat="35.69553299999999" lon="139.70410750000002">
      </trkpt>
      <trkpt lat="35.6950379" lon="139.7039435">
      </trkpt>
      <trkpt lat="35.6950979" lon="139.7036871">
      </trkpt>
      <trkpt lat="35.69512439999999" lon="139.7035773">
      </trkpt>
      <trkpt lat="35.695165599999996" lon="139.7034066">
      </trkpt>
      <trkpt lat="35.6945207" lon="139.7031644">
      </trkpt>
      <trkpt lat="35.694596100000005" lon="139.7028526">
      </trkpt>
      <trkpt lat="35.69417810000001" lon="139.702647">
      </trkpt>
      <trkpt lat="35.6938912" lon="139.7025089">
      </trkpt>
      <trkpt lat="35.6934469" lon="139.70229760000004">
      </trkpt>
      <trkpt lat="35.69333429999998" lon="139.7028035">
      </trkpt>
      <trkpt lat="35.69364580000001" lon="139.70295260000003">
      </trkpt>
      <trkpt lat="35.6934617" lon="139.7036294">
      </trkpt>
      <trkpt lat="35.69314109999999" lon="139.7034817">
      </trkpt>
      <trkpt lat="35.69283709999999" lon="139.704588">
      </trkpt>
      <trkpt lat="35.693534799999995" lon="139.7048766">
      </trkpt>
      <trkpt lat="35.694212199999996" lon="139.7051686">
      </trkpt>
      <trkpt lat="35.694914" lon="139.7055191">
      </trkpt>
      <trkpt lat="35.69495959999999" lon="139.7049859">
      </trkpt>
      <trkpt lat="35.694914" lon="139.7055191">
      </trkpt>
      <trkpt lat="35.69535820000001" lon="139.70563540000003">
      </trkpt>
      <trkpt lat="35.695849599999995" lon="139.7057329">
      </trkpt>
      <trkpt lat="35.6959341" lon="139.7051863">
      </trkpt>
      <trkpt lat="35.695849599999995" lon="139.7057329">
      </trkpt>
      <trkpt lat="35.6960524" lon="139.7057754">
      </trkpt>
      <trkpt lat="35.696701399999995" lon="139.7059079">
      </trkpt>
      <trkpt lat="35.696882499999994" lon="139.7059406">
      </trkpt>
      <trkpt lat="35.6969606" lon="139.7054274">
      </trkpt>
      <trkpt lat="35.6970558" lon="139.7048019">
      </trkpt>
      <trkpt lat="35.6966589" lon="139.7047187">
      </trkpt>
      <trkpt lat="35.6964627" lon="139.7046775">
      </trkpt>
      <trkpt lat="35.69635749999999" lon="139.7052729">
      </trkpt>
      <trkpt lat="35.6959341" lon="139.7051863">
      </trkpt>
      <trkpt lat="35.695849599999995" lon="139.7057329">
      </trkpt>
      <trkpt lat="35.6959341" lon="139.7051863">
      </trkpt>
      <trkpt lat="35.695694800000005" lon="139.7051373">
      </trkpt>
      <trkpt lat="35.69495959999999" lon="139.7049859">
      </trkpt>
      <trkpt lat="35.694914" lon="139.7055191">
      </trkpt>
      <trkpt lat="35.694844499999995" lon="139.7061565">
      </trkpt>
      <trkpt lat="35.694488299999996" lon="139.7061612">
      </trkpt>
      <trkpt lat="35.694844499999995" lon="139.7061565">
      </trkpt>
      <trkpt lat="35.69485649999999" lon="139.7064361">
      </trkpt>
      <trkpt lat="35.694891299999995" lon="139.7067952">
      </trkpt>
      <trkpt lat="35.6949116" lon="139.7069568">
      </trkpt>
      <trkpt lat="35.694235400000004" lon="139.7068809">
      </trkpt>
      <trkpt lat="35.69360269999999" lon="139.70692530000002">
      </trkpt>
      <trkpt lat="35.6935872" lon="139.7067698">
      </trkpt>
      <trkpt lat="35.6929091" lon="139.7061336">
      </trkpt>
      <trkpt lat="35.69249039999999" lon="139.7058922">
      </trkpt>
      <trkpt lat="35.6923712" lon="139.7058226">
      </trkpt>
      <trkpt lat="35.69238810000001" lon="139.7057469">
      </trkpt>
      <trkpt lat="35.692510199999994" lon="139.7058178">
      </trkpt>
      <trkpt lat="35.6929078" lon="139.7060519">
      </trkpt>
      <trkpt lat="35.693062699999984" lon="139.7054725">
      </trkpt>
      <trkpt lat="35.6929078" lon="139.7060519">
      </trkpt>
      <trkpt lat="35.69366839999999" lon="139.7065491">
      </trkpt>
      <trkpt lat="35.693686099999994" lon="139.7067565">
      </trkpt>
      <trkpt lat="35.693973" lon="139.7067094">
      </trkpt>
      <trkpt lat="35.694891299999995" lon="139.7067952">
      </trkpt>
      <trkpt lat="35.6949116" lon="139.7069568">
      </trkpt>
      <trkpt lat="35.694235400000004" lon="139.7068809">
      </trkpt>
      <trkpt lat="35.69360269999999" lon="139.70692530000002">
      </trkpt>
      <trkpt lat="35.6935872" lon="139.7067698">
      </trkpt>
      <trkpt lat="35.6929091" lon="139.7061336">
      </trkpt>
      <trkpt lat="35.69249039999999" lon="139.7058922">
      </trkpt>
      <trkpt lat="35.6923712" lon="139.7058226">
      </trkpt>
      <trkpt lat="35.69238810000001" lon="139.7057469">
      </trkpt>
      <trkpt lat="35.692533899999994" lon="139.7051598">
      </trkpt>
      <trkpt lat="35.6927081" lon="139.7045328">
      </trkpt>
      <trkpt lat="35.6922782" lon="139.704289">
      </trkpt>
      <trkpt lat="35.69211769999999" lon="139.7049116">
      </trkpt>
      <trkpt lat="35.691872000000004" lon="139.7054399">
      </trkpt>
      <trkpt lat="35.6918317" lon="139.7055029">
      </trkpt>
      <trkpt lat="35.6916887" lon="139.7058687">
      </trkpt>
      <trkpt lat="35.6915735" lon="139.7061909">
      </trkpt>
      <trkpt lat="35.6915246" lon="139.7063301">
      </trkpt>
      <trkpt lat="35.69148690000001" lon="139.7064521">
      </trkpt>
      <trkpt lat="35.69140529999999" lon="139.7067023">
      </trkpt>
      <trkpt lat="35.6915728" lon="139.7067873">
      </trkpt>
      <trkpt lat="35.69166119999999" lon="139.7069909">
      </trkpt>
      <trkpt lat="35.692067099999996" lon="139.70694300000002">
      </trkpt>
      <trkpt lat="35.6921902" lon="139.7064965">
      </trkpt>
      <trkpt lat="35.6928342" lon="139.7070187">
      </trkpt>
      <trkpt lat="35.6921549" lon="139.707086">
      </trkpt>
      <trkpt lat="35.69202750000001" lon="139.7070988">
      </trkpt>
      <trkpt lat="35.692067099999996" lon="139.70694300000002">
      </trkpt>
      <trkpt lat="35.6922017" lon="139.7069246">
      </trkpt>
      <trkpt lat="35.693067" lon="139.7068207">
      </trkpt>
      <trkpt lat="35.6935872" lon="139.7067698">
      </trkpt>
      <trkpt lat="35.693686099999994" lon="139.7067565">
      </trkpt>
      <trkpt lat="35.693973" lon="139.7067094">
      </trkpt>
      <trkpt lat="35.694891299999995" lon="139.7067952">
      </trkpt>
      <trkpt lat="35.6949116" lon="139.7069568">
      </trkpt>
      <trkpt lat="35.694235400000004" lon="139.7068809">
      </trkpt>
      <trkpt lat="35.694247" lon="139.7074655">
      </trkpt>
      <trkpt lat="35.69424819999999" lon="139.7075296">
      </trkpt>
      <trkpt lat="35.6949548" lon="139.7074854">
      </trkpt>
      <trkpt lat="35.69495010000001" lon="139.7074053">
      </trkpt>
      <trkpt lat="35.6949116" lon="139.7069568">
      </trkpt>
      <trkpt lat="35.694891299999995" lon="139.7067952">
      </trkpt>
      <trkpt lat="35.69523039999999" lon="139.7068732">
      </trkpt>
      <trkpt lat="35.6965125" lon="139.707159">
      </trkpt>
      <trkpt lat="35.69657990000001" lon="139.7071708">
      </trkpt>
      <trkpt lat="35.69790389999999" lon="139.7074388">
      </trkpt>
      <trkpt lat="35.697964" lon="139.7070166">
      </trkpt>
      <trkpt lat="35.69806210000001" lon="139.7061962">
      </trkpt>
      <trkpt lat="35.6981445" lon="139.7062137">
      </trkpt>
      <trkpt lat="35.6980632" lon="139.7068899">
      </trkpt>
      <trkpt lat="35.6987135" lon="139.70701050000002">
      </trkpt>
      <trkpt lat="35.69969470000001" lon="139.7072162">
      </trkpt>
      <trkpt lat="35.6997018" lon="139.7070741">
      </trkpt>
      <trkpt lat="35.6997039" lon="139.7070326">
      </trkpt>
      <trkpt lat="35.699722400000006" lon="139.70666090000003">
      </trkpt>
      <trkpt lat="35.6997268" lon="139.7066174">
      </trkpt>
      <trkpt lat="35.6993595" lon="139.7065512">
      </trkpt>
      <trkpt lat="35.6997268" lon="139.7066174">
      </trkpt>
      <trkpt lat="35.699722400000006" lon="139.70666090000003">
      </trkpt>
      <trkpt lat="35.6997039" lon="139.7070326">
      </trkpt>
      <trkpt lat="35.6997018" lon="139.7070741">
      </trkpt>
      <trkpt lat="35.69969470000001" lon="139.7072162">
      </trkpt>
      <trkpt lat="35.699638699999994" lon="139.7077671">
      </trkpt>
      <trkpt lat="35.69969470000001" lon="139.7072162">
      </trkpt>
      <trkpt lat="35.6987135" lon="139.70701050000002">
      </trkpt>
      <trkpt lat="35.6980632" lon="139.7068899">
      </trkpt>
      <trkpt lat="35.69799789999999" lon="139.7074546">
      </trkpt>
      <trkpt lat="35.69798239999999" lon="139.707575">
      </trkpt>
      <trkpt lat="35.6978625" lon="139.7084237">
      </trkpt>
      <trkpt lat="35.6977635" lon="139.7094961">
      </trkpt>
      <trkpt lat="35.697753" lon="139.7101649">
      </trkpt>
      <trkpt lat="35.6977951" lon="139.7116926">
      </trkpt>
      <trkpt lat="35.697953299999995" lon="139.7117514">
      </trkpt>
      <trkpt lat="35.6981517" lon="139.7113776">
      </trkpt>
      <trkpt lat="35.69828109999999" lon="139.7111798">
      </trkpt>
      <trkpt lat="35.6983159" lon="139.7109831">
      </trkpt>
      <trkpt lat="35.698319000000005" lon="139.7109137">
      </trkpt>
      <trkpt lat="35.698848999999996" lon="139.7108648">
      </trkpt>
      <trkpt lat="35.699301299999995" lon="139.7108591">
      </trkpt>
      <trkpt lat="35.699612" lon="139.7108494">
      </trkpt>
      <trkpt lat="35.700076200000005" lon="139.7108536">
      </trkpt>
      <trkpt lat="35.700194799999984" lon="139.7108626">
      </trkpt>
      <trkpt lat="35.700855999999995" lon="139.7109488">
      </trkpt>
      <trkpt lat="35.7008282" lon="139.7102003">
      </trkpt>
      <trkpt lat="35.7007083" lon="139.7096738">
      </trkpt>
      <trkpt lat="35.6996031" lon="139.7095818">
      </trkpt>
      <trkpt lat="35.69952729999999" lon="139.7098475">
      </trkpt>
      <trkpt lat="35.6999817" lon="139.7098187">
      </trkpt>
      <trkpt lat="35.69952729999999" lon="139.7098475">
      </trkpt>
      <trkpt lat="35.699435400000006" lon="139.7100596">
      </trkpt>
      <trkpt lat="35.69934919999999" lon="139.7101323">
      </trkpt>
      <trkpt lat="35.69903879999999" lon="139.7103724">
      </trkpt>
      <trkpt lat="35.6989108" lon="139.710346">
      </trkpt>
      <trkpt lat="35.698848999999996" lon="139.7108648">
      </trkpt>
      <trkpt lat="35.698319000000005" lon="139.7109137">
      </trkpt>
      <trkpt lat="35.6983159" lon="139.7109831">
      </trkpt>
      <trkpt lat="35.69828109999999" lon="139.7111798">
      </trkpt>
      <trkpt lat="35.6981517" lon="139.7113776">
      </trkpt>
      <trkpt lat="35.697953299999995" lon="139.7117514">
      </trkpt>
      <trkpt lat="35.69777719999999" lon="139.7124772">
      </trkpt>
      <trkpt lat="35.69778860000001" lon="139.7126577">
      </trkpt>
      <trkpt lat="35.69775130000001" lon="139.7131255">
      </trkpt>
      <trkpt lat="35.697378" lon="139.7133662">
      </trkpt>
      <trkpt lat="35.697327699999995" lon="139.7133206">
      </trkpt>
      <trkpt lat="35.69646370000001" lon="139.7130273">
      </trkpt>
      <trkpt lat="35.69643369999999" lon="139.7130209">
      </trkpt>
      <trkpt lat="35.6965761" lon="139.7124227">
      </trkpt>
      <trkpt lat="35.6968229" lon="139.7118673">
      </trkpt>
      <trkpt lat="35.6965761" lon="139.7124227">
      </trkpt>
      <trkpt lat="35.69643369999999" lon="139.7130209">
      </trkpt>
      <trkpt lat="35.696066200000004" lon="139.712909">
      </trkpt>
      <trkpt lat="35.6959083" lon="139.7128499">
      </trkpt>
      <trkpt lat="35.6958307" lon="139.7128251">
      </trkpt>
      <trkpt lat="35.695551599999995" lon="139.7127359">
      </trkpt>
      <trkpt lat="35.6954115" lon="139.71269">
      </trkpt>
      <trkpt lat="35.695284099999995" lon="139.7126382">
      </trkpt>
      <trkpt lat="35.6947791" lon="139.7124682">
      </trkpt>
      <trkpt lat="35.69462929999999" lon="139.7124378">
      </trkpt>
      <trkpt lat="35.6941413" lon="139.7123515">
      </trkpt>
      <trkpt lat="35.694269799999994" lon="139.711678">
      </trkpt>
      <trkpt lat="35.69430090000001" lon="139.7116494">
      </trkpt>
      <trkpt lat="35.6944294" lon="139.7112833">
      </trkpt>
      <trkpt lat="35.6944277" lon="139.7112314">
      </trkpt>
      <trkpt lat="35.693289499999985" lon="139.7106793">
      </trkpt>
      <trkpt lat="35.6932619" lon="139.7108047">
      </trkpt>
      <trkpt lat="35.69312229999999" lon="139.71144300000003">
      </trkpt>
      <trkpt lat="35.6930492" lon="139.7117555">
      </trkpt>
      <trkpt lat="35.6929219" lon="139.7123535">
      </trkpt>
      <trkpt lat="35.6930492" lon="139.7117555">
      </trkpt>
      <trkpt lat="35.69312229999999" lon="139.71144300000003">
      </trkpt>
      <trkpt lat="35.694269799999994" lon="139.711678">
      </trkpt>
      <trkpt lat="35.6941413" lon="139.7123515">
      </trkpt>
      <trkpt lat="35.694074599999986" lon="139.7126854">
      </trkpt>
      <trkpt lat="35.6943769" lon="139.7127522">
      </trkpt>
      <trkpt lat="35.695346" lon="139.7129946">
      </trkpt>
      <trkpt lat="35.695326400000006" lon="139.7130862">
      </trkpt>
      <trkpt lat="35.6952589" lon="139.7134002">
      </trkpt>
      <trkpt lat="35.6957351" lon="139.713551">
      </trkpt>
      <trkpt lat="35.6960764" lon="139.713659">
      </trkpt>
      <trkpt lat="35.69616120000001" lon="139.7135207">
      </trkpt>
      <trkpt lat="35.696236899999995" lon="139.7133972">
      </trkpt>
      <trkpt lat="35.6962948" lon="139.7133027">
      </trkpt>
      <trkpt lat="35.69664550000001" lon="139.7136336">
      </trkpt>
      <trkpt lat="35.6962948" lon="139.7133027">
      </trkpt>
      <trkpt lat="35.696236899999995" lon="139.7133972">
      </trkpt>
      <trkpt lat="35.69616120000001" lon="139.7135207">
      </trkpt>
      <trkpt lat="35.6960764" lon="139.713659">
      </trkpt>
      <trkpt lat="35.6958562" lon="139.7140248">
      </trkpt>
      <trkpt lat="35.695574099999995" lon="139.7144937">
      </trkpt>
      <trkpt lat="35.6954904" lon="139.7146151">
      </trkpt>
      <trkpt lat="35.69578630000001" lon="139.7148751">
      </trkpt>
      <trkpt lat="35.695806" lon="139.7148925">
      </trkpt>
      <trkpt lat="35.69614750000001" lon="139.7152115">
      </trkpt>
      <trkpt lat="35.6963054" lon="139.7149573">
      </trkpt>
      <trkpt lat="35.696437800000005" lon="139.7147446">
      </trkpt>
      <trkpt lat="35.6967375" lon="139.7142638">
      </trkpt>
      <trkpt lat="35.697327699999995" lon="139.7133206">
      </trkpt>
      <trkpt lat="35.6977056" lon="139.7130506">
      </trkpt>
      <trkpt lat="35.69775130000001" lon="139.7131255">
      </trkpt>
      <trkpt lat="35.697770000000006" lon="139.7133614">
      </trkpt>
      <trkpt lat="35.698779099999996" lon="139.7134441">
      </trkpt>
      <trkpt lat="35.69879259999999" lon="139.7131515">
      </trkpt>
      <trkpt lat="35.698813099999995" lon="139.7127091">
      </trkpt>
      <trkpt lat="35.698937300000004" lon="139.7126953">
      </trkpt>
      <trkpt lat="35.698813099999995" lon="139.7127091">
      </trkpt>
      <trkpt lat="35.69879259999999" lon="139.7131515">
      </trkpt>
      <trkpt lat="35.698779099999996" lon="139.7134441">
      </trkpt>
      <trkpt lat="35.697770000000006" lon="139.7133614">
      </trkpt>
      <trkpt lat="35.6977782" lon="139.7137166">
      </trkpt>
      <trkpt lat="35.697770000000006" lon="139.7133614">
      </trkpt>
      <trkpt lat="35.69775130000001" lon="139.7131255">
      </trkpt>
      <trkpt lat="35.697378" lon="139.7133662">
      </trkpt>
      <trkpt lat="35.697072799999994" lon="139.7138608">
      </trkpt>
      <trkpt lat="35.6970762" lon="139.7147132">
      </trkpt>
      <trkpt lat="35.696781400000006" lon="139.7143255">
      </trkpt>
      <trkpt lat="35.69641970000001" lon="139.7149006">
      </trkpt>
      <trkpt lat="35.6962813" lon="139.71512480000004">
      </trkpt>
      <trkpt lat="35.695931" lon="139.7156994">
      </trkpt>
      <trkpt lat="35.6958814" lon="139.715784">
      </trkpt>
      <trkpt lat="35.6958449" lon="139.7157145">
      </trkpt>
      <trkpt lat="35.6959564" lon="139.7155233">
      </trkpt>
      <trkpt lat="35.69562919999999" lon="139.7151871">
      </trkpt>
      <trkpt lat="35.695806" lon="139.7148925">
      </trkpt>
      <trkpt lat="35.69614750000001" lon="139.7152115">
      </trkpt>
      <trkpt lat="35.6963054" lon="139.7149573">
      </trkpt>
      <trkpt lat="35.696437800000005" lon="139.7147446">
      </trkpt>
      <trkpt lat="35.6967375" lon="139.7142638">
      </trkpt>
      <trkpt lat="35.697327699999995" lon="139.7133206">
      </trkpt>
      <trkpt lat="35.69646370000001" lon="139.7130273">
      </trkpt>
      <trkpt lat="35.6962948" lon="139.7133027">
      </trkpt>
      <trkpt lat="35.696236899999995" lon="139.7133972">
      </trkpt>
      <trkpt lat="35.69616120000001" lon="139.7135207">
      </trkpt>
      <trkpt lat="35.6960764" lon="139.713659">
      </trkpt>
      <trkpt lat="35.6958562" lon="139.7140248">
      </trkpt>
      <trkpt lat="35.695574099999995" lon="139.7144937">
      </trkpt>
      <trkpt lat="35.6954904" lon="139.7146151">
      </trkpt>
      <trkpt lat="35.6952252" lon="139.7150345">
      </trkpt>
      <trkpt lat="35.695062" lon="139.7152338">
      </trkpt>
      <trkpt lat="35.69487749999998" lon="139.71535060000002">
      </trkpt>
      <trkpt lat="35.69458100000001" lon="139.7155276">
      </trkpt>
      <trkpt lat="35.69427950000001" lon="139.7157076">
      </trkpt>
      <trkpt lat="35.69408489999999" lon="139.7152203">
      </trkpt>
      <trkpt lat="35.6938212" lon="139.7145598">
      </trkpt>
      <trkpt lat="35.693650700000006" lon="139.7146217">
      </trkpt>
      <trkpt lat="35.6938212" lon="139.7145598">
      </trkpt>
      <trkpt lat="35.693724499999995" lon="139.7143177">
      </trkpt>
      <trkpt lat="35.69369309999999" lon="139.7143225">
      </trkpt>
      <trkpt lat="35.6926761" lon="139.7142093">
      </trkpt>
      <trkpt lat="35.692671399999995" lon="139.7143744">
      </trkpt>
      <trkpt lat="35.6926687" lon="139.7144419">
      </trkpt>
      <trkpt lat="35.692615499999995" lon="139.714987">
      </trkpt>
      <trkpt lat="35.69236369999999" lon="139.7154944">
      </trkpt>
      <trkpt lat="35.6922948" lon="139.7155784">
      </trkpt>
      <trkpt lat="35.69256200000001" lon="139.7160703">
      </trkpt>
      <trkpt lat="35.692726699999994" lon="139.7164266">
      </trkpt>
      <trkpt lat="35.692938" lon="139.7162667">
      </trkpt>
      <trkpt lat="35.693006399999994" lon="139.7164435">
      </trkpt>
      <trkpt lat="35.69318599999999" lon="139.7168787">
      </trkpt>
      <trkpt lat="35.6935035" lon="139.717194">
      </trkpt>
      <trkpt lat="35.6935984" lon="139.7170049">
      </trkpt>
      <trkpt lat="35.69378090000001" lon="139.7167978">
      </trkpt>
      <trkpt lat="35.6940491" lon="139.7166225">
      </trkpt>
      <trkpt lat="35.6945517" lon="139.7169949">
      </trkpt>
      <trkpt lat="35.69459729999999" lon="139.7169021">
      </trkpt>
      <trkpt lat="35.694684200000005" lon="139.7167256">
      </trkpt>
      <trkpt lat="35.694833" lon="139.7164231">
      </trkpt>
      <trkpt lat="35.69531570000001" lon="139.716634">
      </trkpt>
      <trkpt lat="35.695515199999996" lon="139.7162794">
      </trkpt>
      <trkpt lat="35.6958449" lon="139.7157145">
      </trkpt>
      <trkpt lat="35.695931" lon="139.7156994">
      </trkpt>
      <trkpt lat="35.6958814" lon="139.715784">
      </trkpt>
      <trkpt lat="35.69542619999999" lon="139.7165613">
      </trkpt>
      <trkpt lat="35.6959196" lon="139.7173972">
      </trkpt>
      <trkpt lat="35.69618" lon="139.7178683">
      </trkpt>
      <trkpt lat="35.6963932" lon="139.7182329">
      </trkpt>
      <trkpt lat="35.6970037" lon="139.7175773">
      </trkpt>
      <trkpt lat="35.697133699999995" lon="139.7174839">
      </trkpt>
      <trkpt lat="35.69769070000001" lon="139.717015">
      </trkpt>
      <trkpt lat="35.69751229999999" lon="139.7167383">
      </trkpt>
      <trkpt lat="35.69741849999999" lon="139.7165997">
      </trkpt>
      <trkpt lat="35.697465" lon="139.7164674">
      </trkpt>
      <trkpt lat="35.697249" lon="139.7163718">
      </trkpt>
      <trkpt lat="35.697072600000006" lon="139.716295">
      </trkpt>
      <trkpt lat="35.6969353" lon="139.7165193">
      </trkpt>
      <trkpt lat="35.697072600000006" lon="139.716295">
      </trkpt>
      <trkpt lat="35.6960606" lon="139.7158763">
      </trkpt>
      <trkpt lat="35.6958814" lon="139.715784">
      </trkpt>
      <trkpt lat="35.6958449" lon="139.7157145">
      </trkpt>
      <trkpt lat="35.695931" lon="139.7156994">
      </trkpt>
      <trkpt lat="35.6969629" lon="139.7161545">
      </trkpt>
      <trkpt lat="35.697056800000006" lon="139.7161979">
      </trkpt>
      <trkpt lat="35.697500399999996" lon="139.7163748">
      </trkpt>
      <trkpt lat="35.6977635" lon="139.7164906">
      </trkpt>
      <trkpt lat="35.69823809999999" lon="139.7166781">
      </trkpt>
      <trkpt lat="35.69859319999999" lon="139.7163523">
      </trkpt>
      <trkpt lat="35.698617199999994" lon="139.7164061">
      </trkpt>
      <trkpt lat="35.699637" lon="139.7162285">
      </trkpt>
      <trkpt lat="35.6996117" lon="139.7159618">
      </trkpt>
      <trkpt lat="35.70046159999999" lon="139.7155936">
      </trkpt>
      <trkpt lat="35.700480999999996" lon="139.715903">
      </trkpt>
      <trkpt lat="35.70074329999999" lon="139.715953">
      </trkpt>
      <trkpt lat="35.7012415" lon="139.7160463">
      </trkpt>
      <trkpt lat="35.701196" lon="139.7164704">
      </trkpt>
      <trkpt lat="35.701162999999994" lon="139.7166955">
      </trkpt>
      <trkpt lat="35.7011652" lon="139.7168149">
      </trkpt>
      <trkpt lat="35.7011662" lon="139.7168725">
      </trkpt>
      <trkpt lat="35.7012579" lon="139.7174064">
      </trkpt>
      <trkpt lat="35.70199250000001" lon="139.7175395">
      </trkpt>
      <trkpt lat="35.7021865" lon="139.7174672">
      </trkpt>
      <trkpt lat="35.703872299999986" lon="139.7169702">
      </trkpt>
      <trkpt lat="35.70379869999999" lon="139.7167001">
      </trkpt>
      <trkpt lat="35.7036635" lon="139.7164476">
      </trkpt>
      <trkpt lat="35.703573299999995" lon="139.7162791">
      </trkpt>
      <trkpt lat="35.70293780000001" lon="139.7154296">
      </trkpt>
      <trkpt lat="35.70199589999999" lon="139.7152998">
      </trkpt>
      <trkpt lat="35.70293780000001" lon="139.7154296">
      </trkpt>
      <trkpt lat="35.703573299999995" lon="139.7162791">
      </trkpt>
      <trkpt lat="35.70216049999999" lon="139.7171312">
      </trkpt>
      <trkpt lat="35.7021865" lon="139.7174672">
      </trkpt>
      <trkpt lat="35.70199250000001" lon="139.7175395">
      </trkpt>
      <trkpt lat="35.701814699999986" lon="139.7181512">
      </trkpt>
      <trkpt lat="35.7016335" lon="139.718797">
      </trkpt>
      <trkpt lat="35.70173810000001" lon="139.718947">
      </trkpt>
      <trkpt lat="35.7018737" lon="139.7190152">
      </trkpt>
      <trkpt lat="35.701948800000004" lon="139.719053">
      </trkpt>
      <trkpt lat="35.702167300000006" lon="139.7191629">
      </trkpt>
      <trkpt lat="35.702372100000005" lon="139.7192714">
      </trkpt>
      <trkpt lat="35.702457999999986" lon="139.719322">
      </trkpt>
      <trkpt lat="35.70284469999999" lon="139.7184849">
      </trkpt>
      <trkpt lat="35.70300110000001" lon="139.717327">
      </trkpt>
      <trkpt lat="35.70284469999999" lon="139.7184849">
      </trkpt>
      <trkpt lat="35.7026157" lon="139.7185338">
      </trkpt>
      <trkpt lat="35.702372100000005" lon="139.7192714">
      </trkpt>
      <trkpt lat="35.702457999999986" lon="139.719322">
      </trkpt>
      <trkpt lat="35.70233079999999" lon="139.7199793">
      </trkpt>
      <trkpt lat="35.702411899999994" lon="139.7200411">
      </trkpt>
      <trkpt lat="35.7025248" lon="139.7200835">
      </trkpt>
      <trkpt lat="35.7026099" lon="139.7201156">
      </trkpt>
      <trkpt lat="35.702728400000005" lon="139.71962">
      </trkpt>
      <trkpt lat="35.7027635" lon="139.7194748">
      </trkpt>
      <trkpt lat="35.702728400000005" lon="139.71962">
      </trkpt>
      <trkpt lat="35.70317620000001" lon="139.7197518">
      </trkpt>
      <trkpt lat="35.7030815" lon="139.7202255">
      </trkpt>
      <trkpt lat="35.703387600000006" lon="139.7202914">
      </trkpt>
      <trkpt lat="35.7042176" lon="139.7208652">
      </trkpt>
      <trkpt lat="35.7043177" lon="139.7208101">
      </trkpt>
      <trkpt lat="35.7047875" lon="139.720607">
      </trkpt>
      <trkpt lat="35.70501899999999" lon="139.7205112">
      </trkpt>
      <trkpt lat="35.7050864" lon="139.7208005">
      </trkpt>
      <trkpt lat="35.70501899999999" lon="139.7205112">
      </trkpt>
      <trkpt lat="35.70504680000001" lon="139.7204998">
      </trkpt>
      <trkpt lat="35.705000199999986" lon="139.7203332">
      </trkpt>
      <trkpt lat="35.70486149999999" lon="139.720256">
      </trkpt>
      <trkpt lat="35.704971" lon="139.7202185">
      </trkpt>
      <trkpt lat="35.705000199999986" lon="139.7203332">
      </trkpt>
      <trkpt lat="35.70504680000001" lon="139.7204998">
      </trkpt>
      <trkpt lat="35.70501899999999" lon="139.7205112">
      </trkpt>
      <trkpt lat="35.7047875" lon="139.720607">
      </trkpt>
      <trkpt lat="35.70440519999999" lon="139.7191657">
      </trkpt>
      <trkpt lat="35.70378339999999" lon="139.7190892">
      </trkpt>
      <trkpt lat="35.703832799999994" lon="139.7185776">
      </trkpt>
      <trkpt lat="35.70358740000001" lon="139.7185072">
      </trkpt>
      <trkpt lat="35.703305099999994" lon="139.7191879">
      </trkpt>
      <trkpt lat="35.70317620000001" lon="139.7197518">
      </trkpt>
      <trkpt lat="35.7030815" lon="139.7202255">
      </trkpt>
      <trkpt lat="35.702707" lon="139.7201376">
      </trkpt>
      <trkpt lat="35.7026099" lon="139.7201156">
      </trkpt>
      <trkpt lat="35.7025248" lon="139.7200835">
      </trkpt>
      <trkpt lat="35.702411899999994" lon="139.7200411">
      </trkpt>
      <trkpt lat="35.70233079999999" lon="139.7199793">
      </trkpt>
      <trkpt lat="35.702457999999986" lon="139.719322">
      </trkpt>
      <trkpt lat="35.702372100000005" lon="139.7192714">
      </trkpt>
      <trkpt lat="35.702167300000006" lon="139.7191629">
      </trkpt>
      <trkpt lat="35.701948800000004" lon="139.719053">
      </trkpt>
      <trkpt lat="35.7018737" lon="139.7190152">
      </trkpt>
      <trkpt lat="35.70173810000001" lon="139.718947">
      </trkpt>
      <trkpt lat="35.7016335" lon="139.718797">
      </trkpt>
      <trkpt lat="35.701814699999986" lon="139.7181512">
      </trkpt>
      <trkpt lat="35.70199250000001" lon="139.7175395">
      </trkpt>
      <trkpt lat="35.7021865" lon="139.7174672">
      </trkpt>
      <trkpt lat="35.703872299999986" lon="139.7169702">
      </trkpt>
      <trkpt lat="35.7042122" lon="139.7168291">
      </trkpt>
      <trkpt lat="35.7046654" lon="139.7160941">
      </trkpt>
      <trkpt lat="35.70607909999999" lon="139.7161458">
      </trkpt>
      <trkpt lat="35.7058744" lon="139.7162417">
      </trkpt>
      <trkpt lat="35.70607909999999" lon="139.7161458">
      </trkpt>
      <trkpt lat="35.7067217" lon="139.7163048">
      </trkpt>
      <trkpt lat="35.707387000000004" lon="139.7152466">
      </trkpt>
      <trkpt lat="35.7075181" lon="139.7147919">
      </trkpt>
      <trkpt lat="35.707757699999995" lon="139.7136485">
      </trkpt>
      <trkpt lat="35.70778059999999" lon="139.7135434">
      </trkpt>
      <trkpt lat="35.707955799999986" lon="139.7126615">
      </trkpt>
      <trkpt lat="35.70802689999999" lon="139.7122984">
      </trkpt>
      <trkpt lat="35.708062399999996" lon="139.71209">
      </trkpt>
      <trkpt lat="35.70807909999999" lon="139.7120048">
      </trkpt>
      <trkpt lat="35.7083377" lon="139.7106751">
      </trkpt>
      <trkpt lat="35.708439999999996" lon="139.7111928">
      </trkpt>
      <trkpt lat="35.7083377" lon="139.7106751">
      </trkpt>
      <trkpt lat="35.70838140000001" lon="139.7102634">
      </trkpt>
      <trkpt lat="35.70838779999999" lon="139.7100639">
      </trkpt>
      <trkpt lat="35.7084027" lon="139.7095338">
      </trkpt>
      <trkpt lat="35.70842149999999" lon="139.7091823">
      </trkpt>
      <trkpt lat="35.708426599999996" lon="139.7090796">
      </trkpt>
      <trkpt lat="35.70845080000001" lon="139.7084783">
      </trkpt>
      <trkpt lat="35.708456299999995" lon="139.7081972">
      </trkpt>
      <trkpt lat="35.7072331" lon="139.7080751">
      </trkpt>
      <trkpt lat="35.7070156" lon="139.7089046">
      </trkpt>
      <trkpt lat="35.7072331" lon="139.7080751">
      </trkpt>
      <trkpt lat="35.7072439" lon="139.7074741">
      </trkpt>
      <trkpt lat="35.7075655" lon="139.7074823">
      </trkpt>
      <trkpt lat="35.70759640000001" lon="139.7062887">
      </trkpt>
      <trkpt lat="35.7079187" lon="139.70628400000004">
      </trkpt>
      <trkpt lat="35.7079188" lon="139.7074913">
      </trkpt>
      <trkpt lat="35.708414399999995" lon="139.7075039">
      </trkpt>
      <trkpt lat="35.708659399999995" lon="139.7062749">
      </trkpt>
      <trkpt lat="35.7089635" lon="139.7043177">
      </trkpt>
      <trkpt lat="35.70825049999999" lon="139.7040743">
      </trkpt>
      <trkpt lat="35.7073987" lon="139.7037857">
      </trkpt>
      <trkpt lat="35.70825049999999" lon="139.7040743">
      </trkpt>
      <trkpt lat="35.7082566" lon="139.7040072">
      </trkpt>
      <trkpt lat="35.70825049999999" lon="139.7040743">
      </trkpt>
      <trkpt lat="35.7089635" lon="139.7043177">
      </trkpt>
      <trkpt lat="35.709223499999986" lon="139.7032349">
      </trkpt>
      <trkpt lat="35.709431099999996" lon="139.7023507">
      </trkpt>
      <trkpt lat="35.709165799999994" lon="139.7000276">
      </trkpt>
      <trkpt lat="35.709196" lon="139.700009">
      </trkpt>
      <trkpt lat="35.70926539999999" lon="139.6999637">
      </trkpt>
      <trkpt lat="35.70946080000001" lon="139.7005">
      </trkpt>
      <trkpt lat="35.709808100000004" lon="139.7003269">
      </trkpt>
      <trkpt lat="35.709823799999995" lon="139.7003723">
      </trkpt>
      <trkpt lat="35.709904000000016" lon="139.7006373">
      </trkpt>
      <trkpt lat="35.71003610000001" lon="139.701204">
      </trkpt>
      <trkpt lat="35.71028069999999" lon="139.7017857">
      </trkpt>
      <trkpt lat="35.71032770000001" lon="139.7023957">
      </trkpt>
      <trkpt lat="35.710096199999995" lon="139.7022748">
      </trkpt>
      <trkpt lat="35.71016579999999" lon="139.7018472">
      </trkpt>
      <trkpt lat="35.710096199999995" lon="139.7022748">
      </trkpt>
      <trkpt lat="35.709810999999995" lon="139.7021545">
      </trkpt>
      <trkpt lat="35.7096285" lon="139.7021299">
      </trkpt>
      <trkpt lat="35.7093481" lon="139.7033626">
      </trkpt>
      <trkpt lat="35.709223499999986" lon="139.7032349">
      </trkpt>
      <trkpt lat="35.709431099999996" lon="139.7023507">
      </trkpt>
      <trkpt lat="35.709165799999994" lon="139.7000276">
      </trkpt>
      <trkpt lat="35.709196" lon="139.700009">
      </trkpt>
      <trkpt lat="35.70926539999999" lon="139.6999637">
      </trkpt>
      <trkpt lat="35.70946080000001" lon="139.7005">
      </trkpt>
      <trkpt lat="35.709808100000004" lon="139.7003269">
      </trkpt>
      <trkpt lat="35.709823799999995" lon="139.7003723">
      </trkpt>
      <trkpt lat="35.709904000000016" lon="139.7006373">
      </trkpt>
      <trkpt lat="35.71003610000001" lon="139.701204">
      </trkpt>
      <trkpt lat="35.7109225" lon="139.7006412">
      </trkpt>
      <trkpt lat="35.711155" lon="139.7010922">
      </trkpt>
      <trkpt lat="35.711365300000004" lon="139.7009382">
      </trkpt>
      <trkpt lat="35.711183099999985" lon="139.7004792">
      </trkpt>
      <trkpt lat="35.71121419999999" lon="139.7004608">
      </trkpt>
      <trkpt lat="35.7114984" lon="139.7003998">
      </trkpt>
      <trkpt lat="35.71166039999999" lon="139.7003661">
      </trkpt>
      <trkpt lat="35.711858" lon="139.7002936">
      </trkpt>
      <trkpt lat="35.7117575" lon="139.6998961">
      </trkpt>
      <trkpt lat="35.7116909" lon="139.6995794">
      </trkpt>
      <trkpt lat="35.71226089999999" lon="139.6994129">
      </trkpt>
      <trkpt lat="35.712151" lon="139.6990649">
      </trkpt>
      <trkpt lat="35.712577" lon="139.6988915">
      </trkpt>
      <trkpt lat="35.7125254" lon="139.6986261">
      </trkpt>
      <trkpt lat="35.7124756" lon="139.6982514">
      </trkpt>
      <trkpt lat="35.7127423" lon="139.6983175">
      </trkpt>
    </trkseg>
  </trk>
</gpx>